     2              NAVIGATION DATA                         RINEX VERSION / TYPE
CCRINEXN V1.6.0 UX  CDDIS               08-JUN-16 15:33     PGM / RUN BY / DATE 
IGS BROADCAST EPHEMERIS FILE                                COMMENT             
    0.6519D-08  0.2235D-07 -0.5960D-07 -0.1192D-06          ION ALPHA           
    0.8602D+05  0.9830D+05 -0.6554D+05 -0.5243D+06          ION BETA            
    0.000000000000D+00-0.266453525910D-14   405504     1900 DELTA-UTC: A0,A1,T,W
    17                                                      LEAP SECONDS        
                                                            END OF HEADER       
18 16  6  7 12  0  0.0 0.523934140801D-03 0.397903932026D-11 0.000000000000D+00
    0.510000000000D+02 0.210000000000D+02 0.588167356674D-08-0.210888968692D+00
    0.112131237984D-05 0.172222950496D-01 0.609830021858D-05 0.515367817116D+04
    0.216000000000D+06-0.169500708580D-06-0.140143389114D+01 0.197440385819D-06
    0.924532163321D+00 0.248718750000D+03-0.187971332938D+01-0.890751389085D-08
    0.469305262734D-09 0.100000000000D+01 0.190000000000D+04 0.000000000000D+00
    0.200000000000D+01 0.000000000000D+00-0.121071934700D-07 0.510000000000D+02
    0.208830000000D+06 0.400000000000D+01 0.000000000000D+00 0.000000000000D+00
19 16  6  7 12  0  0.0-0.525559764355D-03 0.113686837722D-12 0.000000000000D+00
    0.107000000000D+03-0.133718750000D+03 0.404802575938D-08 0.135874275681D+01
   -0.690668821335D-05 0.108051964780D-01 0.744126737118D-05 0.515362376785D+04
    0.216000000000D+06-0.169500708580D-06 0.291493039245D+01 0.167638063431D-07
    0.973967151036D+00 0.251500000000D+03 0.782785450225D+00-0.802426281418D-08
   -0.468948105000D-09 0.000000000000D+00 0.190000000000D+04 0.000000000000D+00
    0.200000000000D+01 0.000000000000D+00-0.149011611938D-07 0.107000000000D+03
    0.208800000000D+06 0.400000000000D+01 0.000000000000D+00 0.000000000000D+00
20 16  6  7 12  0  0.0 0.416981521994D-03 0.227373675443D-11 0.000000000000D+00
    0.240000000000D+02 0.228750000000D+02 0.567702218505D-08-0.256810331028D+01
    0.100210309029D-05 0.456456339452D-02 0.557862222195D-05 0.515373877716D+04
    0.216000000000D+06 0.819563865662D-07-0.145326074699D+01 0.130385160446D-07
    0.925803225546D+00 0.246968750000D+03 0.137560823903D+01-0.848321050262D-08
    0.517878714584D-09 0.000000000000D+00 0.190000000000D+04 0.000000000000D+00
    0.200000000000D+01 0.000000000000D+00-0.838190317154D-08 0.240000000000D+02
    0.208800000000D+06 0.400000000000D+01 0.000000000000D+00 0.000000000000D+00
21 16  6  7 12  0  0.0-0.525115989149D-03-0.113686837722D-11 0.000000000000D+00
    0.570000000000D+02-0.537500000000D+02 0.482555814672D-08 0.682087239740D+00
   -0.274553894997D-05 0.233431436354D-01 0.119023025036D-04 0.515360913277D+04
    0.216000000000D+06-0.353902578354D-06-0.244357365080D+01-0.819563865662D-07
    0.936590081262D+00 0.145750000000D+03-0.178494809873D+01-0.842892252703D-08
    0.278940190407D-09 0.000000000000D+00 0.190000000000D+04 0.000000000000D+00
    0.200000000000D+01 0.000000000000D+00-0.102445483208D-07 0.570000000000D+02
    0.213870000000D+06 0.400000000000D+01 0.000000000000D+00 0.000000000000D+00
22 16  6  7 12  0  0.0 0.325394794345D-03-0.852651282912D-11 0.000000000000D+00
    0.840000000000D+02 0.258125000000D+02 0.575595404430D-08-0.220678047130D+01
    0.118464231491D-05 0.768143637106D-02 0.500865280628D-05 0.515380031395D+04
    0.216000000000D+06 0.968575477600D-07-0.140080951917D+01 0.707805156708D-07
    0.922435386245D+00 0.255250000000D+03-0.190906275761D+01-0.856142804641D-08
    0.494663461862D-09 0.100000000000D+01 0.190000000000D+04 0.000000000000D+00
    0.200000000000D+01 0.000000000000D+00-0.176951289177D-07 0.840000000000D+02
    0.208818000000D+06 0.400000000000D+01 0.000000000000D+00 0.000000000000D+00
23 16  6  7 12  0  0.0-0.177109148353D-03-0.159161572810D-11 0.000000000000D+00
    0.890000000000D+02-0.173125000000D+02 0.502699510881D-08-0.307674553425D+01
   -0.972300767899D-06 0.110026613111D-01 0.896491110325D-05 0.515366765022D+04
    0.216000000000D+06-0.139698386192D-06-0.323442126011D+00-0.176951289177D-06
    0.946156291299D+00 0.202687500000D+03-0.256923530020D+01-0.801104797802D-08
   -0.528236288876D-09 0.100000000000D+01 0.190000000000D+04 0.000000000000D+00
    0.200000000000D+01 0.000000000000D+00-0.200234353542D-07 0.890000000000D+02
    0.210792000000D+06 0.400000000000D+01 0.000000000000D+00 0.000000000000D+00
24 16  6  7 12  0  0.0-0.182110816240D-04-0.568434188608D-12 0.000000000000D+00
    0.270000000000D+02 0.119687500000D+03 0.458054794106D-08 0.263736212826D+01
    0.609830021858D-05 0.441197573673D-02 0.111218541861D-04 0.515362306023D+04
    0.216000000000D+06-0.838190317154D-07 0.701743675606D+00-0.502914190292D-07
    0.949594852449D+00 0.157500000000D+03 0.418367329673D+00-0.790925802377D-08
   -0.800033324599D-10 0.000000000000D+00 0.190000000000D+04 0.000000000000D+00
    0.200000000000D+01 0.000000000000D+00 0.232830643654D-08 0.270000000000D+02
    0.209190000000D+06 0.400000000000D+01 0.000000000000D+00 0.000000000000D+00
25 16  6  7 12  0  0.0-0.185792334378D-03-0.704858393874D-11 0.000000000000D+00
    0.800000000000D+02 0.642187500000D+02 0.444375652887D-08 0.590519427219D+00
    0.343844294548D-05 0.561928993557D-02 0.163353979588D-05 0.515374434090D+04
    0.216000000000D+06-0.316649675369D-07 0.177477886509D+01 0.391155481338D-07
    0.978257301669D+00 0.354375000000D+03 0.781537516735D+00-0.844249452093D-08
    0.360729311538D-10 0.100000000000D+01 0.190000000000D+04 0.000000000000D+00
    0.200000000000D+01 0.000000000000D+00 0.558793544769D-08 0.800000000000D+02
    0.212520000000D+06 0.400000000000D+01 0.000000000000D+00 0.000000000000D+00
26 16  6  7 12  0  0.0-0.388537999242D-03-0.114823706099D-10 0.000000000000D+00
    0.410000000000D+02 0.604687500000D+02 0.476484133191D-08-0.213233449983D+00
    0.298395752907D-05 0.101342354901D-02 0.161863863468D-05 0.515376692581D+04
    0.216000000000D+06-0.149011611938D-07 0.176560742934D+01 0.409781932831D-07
    0.960228798115D+00 0.346781250000D+03 0.190065662552D+00-0.847713882114D-08
    0.142863093678D-11 0.100000000000D+01 0.190000000000D+04 0.000000000000D+00
    0.200000000000D+01 0.000000000000D+00 0.698491930962D-08 0.410000000000D+02
    0.213648000000D+06 0.400000000000D+01 0.000000000000D+00 0.000000000000D+00
27 16  6  7 12  0  0.0 0.100893899798D-03 0.420641299570D-11 0.000000000000D+00
    0.340000000000D+02-0.129406250000D+03 0.406338340753D-08-0.176517277005D+01
   -0.666640698910D-05 0.372201111168D-02 0.527314841747D-05 0.515364590836D+04
    0.216000000000D+06-0.875443220139D-07 0.281625337884D+01-0.782310962677D-07
    0.971756737409D+00 0.284937500000D+03 0.293910036361D+00-0.795104515561D-08
   -0.254296306235D-09 0.100000000000D+01 0.190000000000D+04 0.000000000000D+00
    0.200000000000D+01 0.000000000000D+00 0.139698386192D-08 0.340000000000D+02
    0.208800000000D+06 0.000000000000D+00 0.000000000000D+00 0.000000000000D+00
28 16  6  7 12  0  0.0 0.528445467353D-03 0.261479726760D-11 0.000000000000D+00
    0.117000000000D+03 0.279062500000D+02 0.431232248268D-08-0.969338288053D+00
    0.171363353729D-05 0.197476604953D-01 0.138208270073D-05 0.515362451363D+04
    0.216000000000D+06-0.234693288803D-06 0.184958686343D+01 0.206753611565D-06
    0.989265350598D+00 0.369906250000D+03-0.161604126112D+01-0.853749847822D-08
   -0.678599694973D-11 0.000000000000D+00 0.190000000000D+04 0.000000000000D+00
    0.280000000000D+01 0.000000000000D+00-0.111758708954D-07 0.117000000000D+03
    0.211890000000D+06 0.400000000000D+01 0.000000000000D+00 0.000000000000D+00
29 16  6  7 12  0  0.0 0.656873919070D-03-0.227373675443D-12 0.000000000000D+00
    0.300000000000D+02-0.135375000000D+03 0.407481258944D-08 0.526201146916D+00
   -0.707432627678D-05 0.946811516769D-03 0.580213963985D-05 0.515356480408D+04
    0.216000000000D+06 0.726431608200D-07 0.287592868046D+01 0.353902578354D-07
    0.977816596135D+00 0.275937500000D+03-0.196689476198D+00-0.804176354316D-08
   -0.336085427878D-09 0.000000000000D+00 0.190000000000D+04 0.000000000000D+00
    0.200000000000D+01 0.000000000000D+00-0.102445483208D-07 0.300000000000D+02
    0.208800000000D+06 0.400000000000D+01 0.000000000000D+00 0.000000000000D+00
30 16  6  7 12  0  0.0 0.131287612021D-03 0.284217094304D-11 0.000000000000D+00
    0.340000000000D+02 0.122343750000D+03 0.466483716633D-08 0.182702520538D+01
    0.655092298984D-05 0.216428318527D-02 0.911392271519D-05 0.515360365486D+04
    0.216000000000D+06 0.949949026108D-07 0.793077874740D+00 0.633299350738D-07
    0.952241811071D+00 0.200531250000D+03 0.302275662300D+01-0.810390898891D-08
   -0.246438836595D-10 0.000000000000D+00 0.190000000000D+04 0.000000000000D+00
    0.200000000000D+01 0.000000000000D+00 0.325962901115D-08 0.340000000000D+02
    0.208800000000D+06 0.400000000000D+01 0.000000000000D+00 0.000000000000D+00
31 16  6  7 12  0  0.0 0.265119131654D-03-0.193267624127D-11 0.000000000000D+00
    0.880000000000D+02 0.105687500000D+03 0.415945897245D-08 0.156715736928D+01
    0.575184822082D-05 0.815131794661D-02 0.100824981928D-04 0.515376426125D+04
    0.216000000000D+06 0.819563865662D-07 0.758494472328D+00 0.670552253723D-07
    0.971297079771D+00 0.185781250000D+03-0.396244425628D+00-0.777353808478D-08
   -0.173578658819D-09 0.100000000000D+01 0.190000000000D+04 0.000000000000D+00
    0.200000000000D+01 0.000000000000D+00-0.135041773319D-07 0.880000000000D+02
    0.208818000000D+06 0.400000000000D+01 0.000000000000D+00 0.000000000000D+00
